{
  "norad_id": 62903,
  "name": "COSMOS 2582",
  "history": [
    {
      "epoch": "2026-03-28T16:46:00.201216",
      "apogee_km": 589.3859945490949,
      "perigee_km": 576.6262192341619,
      "latitude_deg": -50.632344746350746,
      "longitude_deg": 177.36689023999497,
      "semi_major_axis_km": 6961.143106891628,
      "eccentricity": 0.0009165,
      "inclination_deg": 81.9973,
      "raan_deg": 156.6111,
      "arg_perigee_deg": 329.6172,
      "mean_anomaly_deg": 30.4515,
      "mean_motion_rev_day": 14.94795972
    }
  ]
}